OBJECT_NAME,OBJECT_ID,EPOCH,MEAN_MOTION,ECCENTRICITY,INCLINATION,RA_OF_ASC_NODE,ARG_OF_PERICENTER,MEAN_ANOMALY,EPHEMERIS_TYPE,CLASSIFICATION_TYPE,NORAD_CAT_ID,ELEMENT_SET_NO,REV_AT_EPOCH,BSTAR,MEAN_MOTION_DOT,MEAN_MOTION_DDOT
INTELSAT 11 (IS-11),2007-044B,2026-07-16T01:53:38.676768,0.99052460,.0004235,3.6387,78.3176,100.3049,142.4225,0,U,32253,999,6873,0,-.187E-5,0
WGS F1 (USA 195),2007-046A,2026-07-15T11:42:38.570688,1.00268219,.00003518,0.0161,62.8125,184.9075,178.7651,0,U,32258,999,5261,0,-.277E-5,0
SKYNET 5B,2007-056B,2026-07-15T22:02:34.457568,1.00275022,.0003728,5.3224,73.1589,44.5124,171.8467,0,U,32294,999,6848,0,.127E-5,0
ASTRA 4A,2007-057A,2026-07-16T03:04:42.616128,1.00271615,.0002334,0.0385,287.6194,192.7418,224.5666,0,U,32299,999,5193,0,.22E-6,0
HORIZONS-2,2007-063B,2026-07-16T02:42:05.038848,1.00268999,.0003576,2.6748,80.2704,21.3071,159.0662,0,U,32388,999,6810,0,-.265E-5,0
THURAYA-3,2008-001A,2026-07-16T03:21:33.502176,1.00272128,.0002146,6.0375,35.8241,77.4086,294.8230,0,U,32404,999,6778,0,-.3E-7,0
THOR 5,2008-006A,2026-07-16T03:03:12.760128,1.00271556,.0002367,0.0419,221.6868,261.7027,215.6133,0,U,32487,999,6760,0,-.2E-6,0
AMC-14,2008-011A,2026-07-16T00:00:49.699008,1.00420354,.0039594,24.0434,20.1720,8.4398,344.6203,0,U,32708,999,6845,0,-.193E-5,0
DIRECTV 11,2008-013A,2026-07-15T12:14:38.600736,1.00271599,.00000802,0.0353,223.2222,348.5472,166.0602,0,U,32729,999,4587,0,-.136E-5,0
ICO G1,2008-016A,2026-07-16T02:36:50.541984,1.00272718,.0002374,5.5264,36.0303,67.8130,136.4586,0,U,32763,999,6683,0,-.184E-5,0
VINASAT-1,2008-018A,2026-07-16T01:25:38.577792,1.00270212,.0001551,0.0493,267.4264,225.2362,314.5754,0,U,32767,999,6688,0,-.339E-5,0
STAR ONE C2,2008-018B,2026-07-16T01:02:14.056800,1.00270586,.0002784,1.3121,82.1884,49.3840,112.8579,0,U,32768,999,6694,0,-.288E-5,0
AMOS-3,2008-022A,2026-07-16T03:20:48.574176,1.00488554,.0003035,0.5281,85.7917,84.2542,235.1232,0,U,32794,999,8262,0,-.13E-6,0
GALAXY 18 (G-18),2008-024A,2026-07-15T21:20:24.129024,1.00271674,.000289,0.0149,64.7677,63.3023,2.7519,0,U,32951,999,4614,0,.15E-6,0
ZHONGXING-9,2008-028A,2026-07-16T03:29:40.225344,1.00268944,.0003226,0.8406,84.9438,28.9652,324.8373,0,U,33051,999,6632,0,-.259E-5,0
SKYNET 5C,2008-030A,2026-07-16T01:15:37.950048,1.00272280,.000414,3.8608,76.6965,46.6356,171.6678,0,U,33055,999,6624,0,-.152E-5,0
TURKSAT 3A,2008-030B,2026-07-16T03:15:19.099008,1.00270784,.0004899,0.0374,75.0663,20.8030,288.9001,0,U,33056,999,5264,0,.136E-5,0
ECHOSTAR 11,2008-035A,2026-07-16T02:32:05.998272,1.00270979,.0002229,1.0781,83.8444,21.1287,117.1840,0,U,33207,999,5150,0,-.69E-6,0
SUPERBIRD-C2,2008-038A,2026-07-16T00:16:48.167040,1.00272474,.0006181,2.4334,80.9035,38.2259,314.9173,0,U,33274,999,10601,0,-.318E-5,0
INMARSAT 4-F3,2008-039A,2026-07-16T02:35:28.175136,1.00272149,.0002776,4.3172,31.6948,89.2187,113.9079,0,U,33278,999,4683,0,-.152E-5,0
NIMIQ 4,2008-044A,2026-07-16T02:39:57.744000,1.00271559,.0001935,0.0125,31.6895,68.8973,151.3519,0,U,33373,999,6527,0,-.231E-5,0
GALAXY 19 (G-19),2008-045A,2026-07-16T02:35:43.149984,1.00270917,.0002367,0.0545,245.9268,239.1007,110.8489,0,U,33376,999,6519,0,-.15E-5,0
ASTRA 1M,2008-057A,2026-07-16T01:37:38.784864,1.00269928,.0004472,0.3687,82.7754,41.7353,213.1756,0,U,33436,999,4602,0,.11E-5,0
EUTELSAT HOTBIRD 13C,2008-065A,2026-07-16T02:25:38.976384,1.00270455,.0003409,3.0227,78.8481,37.8282,163.3605,0,U,33459,999,4763,0,-.295E-5,0
EXPRESS-AM44,2009-007A,2026-07-16T03:00:13.048128,1.00271096,.0003618,3.5353,78.0345,31.5052,218.4480,0,U,33595,999,5257,0,-.102E-5,0
NSS-9,2009-008A,2026-07-15T19:22:18.841728,1.00272195,.0001879,1.3338,82.3720,21.5443,303.3693,0,U,33749,999,6380,0,.6E-6,0
TELSTAR 11N,2009-009A,2026-07-16T02:17:38.772096,1.00272917,.0002217,0.0358,263.0102,202.8440,184.9218,0,U,34111,999,4653,0,-.261E-5,0
WGS F2 (USA 204),2009-017A,2026-07-16T03:19:48.668736,1.00270423,.000032,0.0151,46.7811,182.0984,172.5258,0,U,34713,999,4590,0,.58E-6,0
SES-7 (PROTOSTAR 2),2009-027A,2026-07-16T00:08:56.422176,1.00269501,.0001433,0.0111,44.9852,154.3525,204.9693,0,U,34941,999,6291,0,-.355E-5,0
MEASAT-3A,2009-032A,2026-07-14T02:11:55.993056,1.00269864,.00025681,0.0359,317.7686,143.9350,23.2173,0,U,35362,999,830,0,-.117E-5,0
EWS-G3 (GOES 14),2009-033A,2026-07-16T01:33:38.763072,1.00097655,.0001935,1.7623,82.6815,40.1052,319.0547,0,U,35491,999,687,0,-.37E-5,0
FM-5,2009-034A,2026-07-13T21:36:30.896640,1.00271245,.00007579,0.0457,259.5714,86.9227,183.2440,0,U,35493,999,4691,0,-.205E-5,0
TERRESTAR-1,2009-035A,2026-07-13T12:29:38.800608,1.00270674,.00026182,5.1989,48.7738,55.2029,263.8324,0,U,35496,999,6239,0,-.64E-6,0
ASIASAT 5,2009-042A,2026-07-16T02:13:38.789184,1.00266547,.0001477,0.0298,77.0314,31.7935,319.0887,0,U,35696,999,6199,0,0,0
JCSAT-12 (JCSAT-RA),2009-044A,2026-07-16T01:25:38.577792,1.00271720,.0000811,0.0539,263.9896,290.1822,253.1870,0,U,35755,999,6190,0,-.338E-5,0
OPTUS D3,2009-044B,2026-07-12T22:48:29.541024,1.00268614,.00029239,0.8917,268.2973,204.5770,316.2131,0,U,35756,999,6182,0,-.147E-5,0
NIMIQ 5,2009-050A,2026-07-16T00:59:59.272800,1.00270577,.0002579,0.0394,235.9861,234.2318,125.9500,0,U,35873,999,6163,0,-.267E-5,0
AMAZONAS 2,2009-054A,2026-07-16T03:42:52.166880,1.00269671,.0003206,1.8885,82.6761,33.4342,161.5886,0,U,35942,999,6147,0,-.271E-5,0
COMSATBW-1,2009-054B,2026-07-16T03:21:18.524736,1.00270148,.0002673,0.0642,170.5906,304.9708,291.7513,0,U,35943,999,6159,0,.14E-6,0
NSS-12,2009-058A,2026-07-16T03:19:41.182176,1.00270972,.0004877,0.0903,269.4407,169.5346,321.9035,0,U,36032,999,6120,0,.61E-6,0
THOR 6,2009-058B,2026-07-16T03:03:05.270976,1.00269889,.0001683,0.0187,83.4845,34.4268,220.9876,0,U,36033,999,6129,0,0,0
INTELSAT 14 (IS-14),2009-064A,2026-07-16T02:25:38.976384,1.00268372,.0002245,0.0158,333.1299,151.2926,160.9084,0,U,36097,999,6089,0,-.284E-5,0
EUTELSAT 36B,2009-065A,2026-07-16T03:17:48.861312,1.00274331,.0005778,0.5624,81.3319,34.4184,278.1884,0,U,36101,999,6099,0,.101E-5,0
INTELSAT 15 (IS-15),2009-067A,2026-07-15T22:19:32.831040,1.00268551,.0002252,0.0167,359.1777,122.2404,232.3618,0,U,36106,999,4151,0,-.195E-5,0
WGS F3 (USA 211),2009-068A,2026-07-15T17:53:02.480640,1.00270754,.00006661,0.2979,85.6112,101.0929,245.1494,0,U,36108,999,4687,0,.54E-6,0
DIRECTV 12,2009-075A,2026-07-14T23:11:38.372640,1.00271543,.00003517,0.0065,109.4409,121.9560,306.6005,0,U,36131,999,4683,0,-.112E-5,0
BEIDOU-2 G1,2010-001A,2026-07-15T22:35:31.299936,1.00271714,.0001852,4.3590,60.3034,285.2041,67.6130,0,U,36287,999,6045,0,-.292E-5,0
SDO,2010-005A,2026-07-15T08:15:29.770848,1.00277108,.00018358,34.7081,85.9138,46.0485,182.8654,0,U,36395,999,6034,0,-.103E-5,0
INTELSAT 16 (IS-16),2010-006A,2026-07-16T02:55:08.463072,1.00269811,.0002383,0.0126,53.1158,85.0765,123.3322,0,U,36397,999,5994,0,-.255E-5,0
EWS-G2 (GOES 15),2010-008A,2026-07-16T03:21:26.013024,1.00268468,.0005264,1.3556,82.4456,54.0896,271.0977,0,U,36411,999,5992,0,.11E-6,0
ECHOSTAR 14,2010-010A,2026-07-16T02:29:28.750272,1.00271548,.0001905,0.0448,240.9971,216.4457,114.9457,0,U,36499,999,4684,0,-.1E-6,0
SES-1,2010-016A,2026-07-15T19:43:46.784064,1.00271661,.0002406,0.0343,295.4407,176.8211,16.3383,0,U,36516,999,5932,0,-.125E-5,0
ASTRA 3B,2010-021A,2026-07-16T03:10:04.603008,1.00270582,.0004388,1.5417,83.2032,22.1686,259.6086,0,U,36581,999,5915,0,.125E-5,0
COMSATBW-2,2010-021B,2026-07-16T03:07:12.377568,1.00275747,.0002415,0.0473,193.4090,302.6414,217.9685,0,U,36582,999,5924,0,.79E-6,0
BEIDOU-2 G3,2010-024A,2026-07-16T02:23:51.516384,1.00268289,.000691,4.5821,61.3798,359.4968,348.5733,0,U,36590,999,5905,0,-.146E-5,0
BADR-5,2010-025A,2026-07-16T03:12:04.411296,1.00271048,.0005185,0.0515,114.7597,81.0734,176.6040,0,U,36592,999,5350,0,.143E-5,0
COMS 1,2010-032A,2026-07-16T02:51:28.885248,0.99167726,.001123,4.8776,75.0054,15.0057,205.2047,0,U,36744,999,5137,0,-.252E-5,0
ARABSAT-5A,2010-032B,2026-07-16T03:12:04.411296,1.00274676,.0005735,0.1131,66.9089,57.1612,248.4312,0,U,36745,999,5893,0,.143E-5,0
ECHOSTAR 15,2010-034A,2026-07-16T02:29:28.750272,1.00272190,.0001839,0.0463,261.8303,194.1783,116.4845,0,U,36792,999,5861,0,-.11E-6,0
BEIDOU-2 IGSO-1,2010-036A,2026-07-14T22:00:55.325664,1.00264343,.0059022,54.3063,162.7092,225.2803,342.1032,0,U,36828,999,5837,0,-.122E-5,0
NILESAT 201,2010-037A,2026-07-13T11:30:38.532096,1.00271853,.00054772,0.0241,122.3173,16.5206,318.1955,0,U,36830,999,5864,0,-.61E-6,0
RASCOM-QAF 1R,2010-037B,2026-07-16T03:04:12.663840,1.00270723,.0006238,0.0079,48.3152,57.6777,236.9218,0,U,36831,999,5859,0,.8E-7,0
AEHF-1 (USA 214),2010-039A,2026-07-15T20:42:38.669184,1.00274928,.0003769,8.2898,67.6719,37.5770,169.0786,0,U,36868,999,5394,0,.133E-5,0
XM-5,2010-053A,2026-07-13T06:37:25.387392,1.00270903,.0001728,0.0648,265.0318,322.3275,47.9546,0,U,37185,999,5774,0,-.26E-6,0
BSAT-3B,2010-056B,2026-07-16T02:13:38.789184,1.00270765,.0002666,0.0740,245.1923,297.0588,254.9214,0,U,37207,999,5238,0,-.361E-5,0
BEIDOU-2 G4,2010-057A,2026-07-15T19:15:49.464576,1.00269871,.0005656,3.7161,68.7688,184.0793,129.6659,0,U,37210,999,5757,0,-.126E-5,0
SKYTERRA 1,2010-061A,2026-07-16T02:34:28.271424,1.00270344,.0002557,5.1849,50.8068,26.3587,154.0614,0,U,37218,999,5748,0,-.13E-5,0
HYLAS 1,2010-065A,2026-07-15T18:39:37.398816,1.00641258,.00011757,5.7139,72.6653,146.2133,27.7842,0,U,37237,999,717,0,.127E-5,0
INTELSAT 17 (IS-17),2010-065B,2026-07-16T01:39:35.652960,1.00271012,.0002841,0.0364,98.8883,42.2074,243.6844,0,U,37238,999,5353,0,0,0
BEIDOU-2 IGSO-2,2010-068A,2026-07-15T15:35:22.636320,1.00272942,.00569016,47.4956,271.4764,213.8035,150.3630,0,U,37256,999,5708,0,-.192E-5,0
EUTELSAT KA-SAT 9A,2010-069A,2026-07-16T01:45:38.730816,1.00270985,.0004538,0.0611,359.0894,144.8328,185.3856,0,U,37258,999,4429,0,.51E-6,0
HISPASAT 30W-5,2010-070A,2026-07-16T02:17:38.772096,1.00270284,.0005633,0.0305,108.9763,18.7469,170.6129,0,U,37264,999,5347,0,-.227E-5,0
